[{"OBJECT_NAME":"CARBSAR","OBJECT_ID":"2026-004AL","EPOCH":"2026-03-09T21:38:55.142304","MEAN_MOTION":15.18376766,"ECCENTRICITY":0.00049276,"INCLINATION":97.4551,"RA_OF_ASC_NODE":69.3924,"ARG_OF_PERICENTER":346.0062,"MEAN_ANOMALY":14.1035,"EPHEMERIS_TYPE":0,"CLASSIFICATION_TYPE":"U","NORAD_CAT_ID":67397,"ELEMENT_SET_NO":999,"REV_AT_EPOCH":869,"BSTAR":0.00041216985,"MEAN_MOTION_DOT":8.41e-5,"MEAN_MOTION_DDOT":0},{"OBJECT_NAME":"COSMOS 1933","OBJECT_ID":"1988-020A","EPOCH":"2026-03-09T22:07:36.922368","MEAN_MOTION":15.17984641,"ECCENTRICITY":0.00038825,"INCLINATION":82.5099,"RA_OF_ASC_NODE":250.6818,"ARG_OF_PERICENTER":179.5653,"MEAN_ANOMALY":180.5585,"EPHEMERIS_TYPE":0,"CLASSIFICATION_TYPE":"U","NORAD_CAT_ID":18958,"ELEMENT_SET_NO":999,"REV_AT_EPOCH":5026,"BSTAR":0.00026961207,"MEAN_MOTION_DOT":5.508e-5,"MEAN_MOTION_DDOT":0}]
